{"type": "FeatureCollection", "features": [ {"type": "Feature", "properties": {"norad_id": 40697, "name": "SENTINEL-2A", "group": "resource", "lat": -64.2081177587565, "lon": -149.23350759008366, "alt_km": 796.8443423598192, "timestamp": "2025-12-02T06:27:52.678316+00:00", "meta": {"OBJECT_NAME": "SENTINEL-2A", "OBJECT_ID": "2015-028A", "EPOCH": "2025-12-01T19:15:02.496672", "MEAN_MOTION": 14.30820055, "ECCENTRICITY": 0.0001043, "INCLINATION": 98.5707, "RA_OF_ASC_NODE": 48.4904, "ARG_OF_PERICENTER": 93.5597, "MEAN_ANOMALY": 266.5705, "EPHEMERIS_TYPE": 0, "CLASSIFICATION_TYPE": "U", "NORAD_CAT_ID": 40697, "ELEMENT_SET_NO": 999, "REV_AT_EPOCH": 54550, "BSTAR": 8.2928e-05, "MEAN_MOTION_DOT": 1.74e-06, "MEAN_MOTION_DDOT": 0}, "tle": {"line1": "1 40697U 15028A   25335.80211223  .00000174  00000+0  82928-4 0  9993", "line2": "2 40697  98.5707  48.4904 0001043  93.5597 266.5705 14.30820055545507"}}, "geometry": {"type": "Point", "coordinates": [-149.23350759008366, -64.2081177587565]}}, {"type": "Feature", "properties": {"norad_id": 40701, "name": "GAOFEN-8", "group": "resource", "lat": -28.289634438479045, "lon": -30.267617248320846, "alt_km": 451.6123261553048, "timestamp": "2025-12-02T06:27:52.678328+00:00", "meta": {"OBJECT_NAME": "GAOFEN-8", "OBJECT_ID": "2015-030A", "EPOCH": "2025-12-01T20:11:32.584704", "MEAN_MOTION": 15.37974341, "ECCENTRICITY": 0.0011135, "INCLINATION": 97.691, "RA_OF_ASC_NODE": 153.4551, "ARG_OF_PERICENTER": 176.7658, "MEAN_ANOMALY": 183.366, "EPHEMERIS_TYPE": 0, "CLASSIFICATION_TYPE": "U", "NORAD_CAT_ID": 40701, "ELEMENT_SET_NO": 999, "REV_AT_EPOCH": 58103, "BSTAR": 0.00051961, "MEAN_MOTION_DOT": 0.00019385, "MEAN_MOTION_DDOT": 0}, "tle": {"line1": "1 40701U 15030A   25335.84134936  .00019385  00000+0  51961-3 0  9997", "line2": "2 40701  97.6910 153.4551 0011135 176.7658 183.3660 15.37974341581039"}}, "geometry": {"type": "Point", "coordinates": [-30.267617248320846, -28.289634438479045]}}, {"type": "Feature", "properties": {"norad_id": 40718, "name": "CARBONITE 1 (CBNT-1)", "group": "resource", "lat": 69.94939971109247, "lon": 136.1948083444469, "alt_km": 622.1048519714059, "timestamp": "2025-12-02T06:27:52.678338+00:00", "meta": {"OBJECT_NAME": "CARBONITE 1 (CBNT-1)", "OBJECT_ID": "2015-032D", "EPOCH": "2025-12-01T20:25:28.756992", "MEAN_MOTION": 14.82658735, "ECCENTRICITY": 0.0013746, "INCLINATION": 97.6403, "RA_OF_ASC_NODE": 157.3749, "ARG_OF_PERICENTER": 218.4066, "MEAN_ANOMALY": 141.617, "EPHEMERIS_TYPE": 0, "CLASSIFICATION_TYPE": "U", "NORAD_CAT_ID": 40718, "ELEMENT_SET_NO": 999, "REV_AT_EPOCH": 56009, "BSTAR": 0.00034668, "MEAN_MOTION_DOT": 2.748e-05, "MEAN_MOTION_DDOT": 0}, "tle": {"line1": "1 40718U 15032D   25335.85102728  .00002748  00000+0  34668-3 0  9992", "line2": "2 40718  97.6403 157.3749 0013746 218.4066 141.6170 14.82658735560094"}}, "geometry": {"type": "Point", "coordinates": [136.1948083444469, 69.94939971109247]}}, {"type": "Feature", "properties": {"norad_id": 40878, "name": "YAOGAN-27", "group": "resource", "lat": -75.14574530214462, "lon": 8.586016146127397, "alt_km": 1202.0364577470282, "timestamp": "2025-12-02T06:27:52.678349+00:00", "meta": {"OBJECT_NAME": "YAOGAN-27", "OBJECT_ID": "2015-040A", "EPOCH": "2025-12-01T21:44:33.402624", "MEAN_MOTION": 13.16059607, "ECCENTRICITY": 0.0007772, "INCLINATION": 100.1003, "RA_OF_ASC_NODE": 326.0163, "ARG_OF_PERICENTER": 313.3739, "MEAN_ANOMALY": 46.6727, "EPHEMERIS_TYPE": 0, "CLASSIFICATION_TYPE": "U", "NORAD_CAT_ID": 40878, "ELEMENT_SET_NO": 999, "REV_AT_EPOCH": 49171, "BSTAR": 9.1522e-05, "MEAN_MOTION_DOT": -8e-08, "MEAN_MOTION_DDOT": 0}, "tle": {"line1": "1 40878U 15040A   25335.90594216 -.00000008  00000+0  91522-4 0  9992", "line2": "2 40878 100.1003 326.0163 0007772 313.3739  46.6727 13.16059607491719"}}, "geometry": {"type": "Point", "coordinates": [8.586016146127397, -75.14574530214462]}}, {"type": "Feature", "properties": {"norad_id": 40894, "name": "GAOFEN-9 01", "group": "resource", "lat": 3.304438448016828, "lon": 15.231694391249672, "alt_km": 615.397747504162, "timestamp": "2025-12-02T06:27:52.678359+00:00", "meta": {"OBJECT_NAME": "GAOFEN-9 01", "OBJECT_ID": "2015-047A", "EPOCH": "2025-12-01T20:43:46.502688", "MEAN_MOTION": 14.82376273, "ECCENTRICITY": 0.0028991, "INCLINATION": 97.6557, "RA_OF_ASC_NODE": 15.2885, "ARG_OF_PERICENTER": 68.5404, "MEAN_ANOMALY": 291.8898, "EPHEMERIS_TYPE": 0, "CLASSIFICATION_TYPE": "U", "NORAD_CAT_ID": 40894, "ELEMENT_SET_NO": 999, "REV_AT_EPOCH": 55095, "BSTAR": 0.0001669, "MEAN_MOTION_DOT": 1.295e-05, "MEAN_MOTION_DDOT": 0}, "tle": {"line1": "1 40894U 15047A   25335.86373267  .00001295  00000+0  16690-3 0  9993", "line2": "2 40894  97.6557  15.2885 0028991  68.5404 291.8898 14.82376273550953"}}, "geometry": {"type": "Point", "coordinates": [15.231694391249672, 3.304438448016828]}}, {"type": "Feature", "properties": {"norad_id": 41026, "name": "YAOGAN-28", "group": "resource", "lat": 21.32085246607151, "lon": 111.49969390776539, "alt_km": 499.71877422969646, "timestamp": "2025-12-02T06:27:52.678370+00:00", "meta": {"OBJECT_NAME": "YAOGAN-28", "OBJECT_ID": "2015-064A", "EPOCH": "2025-12-01T20:54:56.989152", "MEAN_MOTION": 15.24054741, "ECCENTRICITY": 0.0011813, "INCLINATION": 97.2793, "RA_OF_ASC_NODE": 113.9731, "ARG_OF_PERICENTER": 162.4208, "MEAN_ANOMALY": 197.7441, "EPHEMERIS_TYPE": 0, "CLASSIFICATION_TYPE": "U", "NORAD_CAT_ID": 41026, "ELEMENT_SET_NO": 999, "REV_AT_EPOCH": 56059, "BSTAR": 0.0004317, "MEAN_MOTION_DOT": 0.00010429, "MEAN_MOTION_DDOT": 0}, "tle": {"line1": "1 41026U 15064A   25335.87149293  .00010429  00000+0  43170-3 0  9993", "line2": "2 41026  97.2793 113.9731 0011813 162.4208 197.7441 15.24054741560595"}}, "geometry": {"type": "Point", "coordinates": [111.49969390776539, 21.32085246607151]}}, {"type": "Feature", "properties": {"norad_id": 41038, "name": "YAOGAN-29", "group": "resource", "lat": -52.80813300822431, "lon": 168.69484455291192, "alt_km": 627.7398221081612, "timestamp": "2025-12-02T06:27:52.678380+00:00", "meta": {"OBJECT_NAME": "YAOGAN-29", "OBJECT_ID": "2015-069A", "EPOCH": "2025-12-01T21:19:02.767872", "MEAN_MOTION": 14.82862445, "ECCENTRICITY": 8.75e-05, "INCLINATION": 98.023, "RA_OF_ASC_NODE": 359.0246, "ARG_OF_PERICENTER": 11.6665, "MEAN_ANOMALY": 348.4568, "EPHEMERIS_TYPE": 0, "CLASSIFICATION_TYPE": "U", "NORAD_CAT_ID": 41038, "ELEMENT_SET_NO": 999, "REV_AT_EPOCH": 54138, "BSTAR": 7.2946e-05, "MEAN_MOTION_DOT": 5.37e-06, "MEAN_MOTION_DDOT": 0}, "tle": {"line1": "1 41038U 15069A   25335.88822648  .00000537  00000+0  72946-4 0  9997", "line2": "2 41038  98.0230 359.0246 0000875  11.6665 348.4568 14.82862445541387"}}, "geometry": {"type": "Point", "coordinates": [168.69484455291192, -52.80813300822431]}}, {"type": "Feature", "properties": {"norad_id": 41167, "name": "KENT RIDGE 1", "group": "resource", "lat": -14.887160451403462, "lon": -154.96185262321896, "alt_km": 497.86427220475343, "timestamp": "2025-12-02T06:27:52.678390+00:00", "meta": {"OBJECT_NAME": "KENT RIDGE 1", "OBJECT_ID": "2015-077B", "EPOCH": "2025-12-01T05:39:27.328608", "MEAN_MOTION": 15.21492496, "ECCENTRICITY": 0.00087356, "INCLINATION": 14.9809, "RA_OF_ASC_NODE": 296.4925, "ARG_OF_PERICENTER": 328.0213, "MEAN_ANOMALY": 31.9579, "EPHEMERIS_TYPE": 0, "CLASSIFICATION_TYPE": "U", "NORAD_CAT_ID": 41167, "ELEMENT_SET_NO": 999, "REV_AT_EPOCH": 55088, "BSTAR": 0.00020076422, "MEAN_MOTION_DOT": 5.412e-05, "MEAN_MOTION_DDOT": 0}, "tle": {"line1": "1 41167U 15077B   25335.23573297  .00005412  00000+0  20076-3 0  9994", "line2": "2 41167  14.9809 296.4925 0008735 328.0213  31.9579 15.21492496550884"}}, "geometry": {"type": "Point", "coordinates": [-154.96185262321896, -14.887160451403462]}}, {"type": "Feature", "properties": {"norad_id": 41194, "name": "GAOFEN-4", "group": "resource", "lat": -0.048873381835565076, "lon": -85.99378114064557, "alt_km": 35785.64517141493, "timestamp": "2025-12-02T06:27:52.678402+00:00", "meta": {"OBJECT_NAME": "GAOFEN-4", "OBJECT_ID": "2015-083A", "EPOCH": "2025-12-02T01:52:21.643392", "MEAN_MOTION": 1.00267088, "ECCENTRICITY": 0.0003519, "INCLINATION": 0.1407, "RA_OF_ASC_NODE": 80.5688, "ARG_OF_PERICENTER": 110.0556, "MEAN_ANOMALY": 14.3058, "EPHEMERIS_TYPE": 0, "CLASSIFICATION_TYPE": "U", "NORAD_CAT_ID": 41194, "ELEMENT_SET_NO": 999, "REV_AT_EPOCH": 3655, "BSTAR": 0, "MEAN_MOTION_DOT": -3.13e-06, "MEAN_MOTION_DDOT": 0}, "tle": {"line1": "1 41194U 15083A   25336.07802828 -.00000313  00000+0  00000+0 0  9996", "line2": "2 41194   0.1407  80.5688 0003519 110.0556  14.3058  1.00267088 36556"}}, "geometry": {"type": "Point", "coordinates": [-85.99378114064557, -0.048873381835565076]}}, {"type": "Feature", "properties": {"norad_id": 41240, "name": "JASON-3", "group": "resource", "lat": 19.36356094912636, "lon": -171.1718409201726, "alt_km": 1312.0854283591289, "timestamp": "2025-12-02T06:27:52.678414+00:00", "meta": {"OBJECT_NAME": "JASON-3", "OBJECT_ID": "2016-002A", "EPOCH": "2025-12-01T19:10:12.039744", "MEAN_MOTION": 12.87625854, "ECCENTRICITY": 0.0007156, "INCLINATION": 66.0393, "RA_OF_ASC_NODE": 180.8269, "ARG_OF_PERICENTER": 270.2011, "MEAN_ANOMALY": 89.8187, "EPHEMERIS_TYPE": 0, "CLASSIFICATION_TYPE": "U", "NORAD_CAT_ID": 41240, "ELEMENT_SET_NO": 999, "REV_AT_EPOCH": 46183, "BSTAR": 0.00020755, "MEAN_MOTION_DOT": -1e-07, "MEAN_MOTION_DDOT": 0}, "tle": {"line1": "1 41240U 16002A   25335.79875046 -.00000010  00000+0  20755-3 0  9997", "line2": "2 41240  66.0393 180.8269 0007156 270.2011  89.8187 12.87625854461837"}}, "geometry": {"type": "Point", "coordinates": [-171.1718409201726, 19.36356094912636]}}]}